IRIDIUM 155             
1 43573U 18061E   25209.66424079  .00000035  00000+0  52681-5 0  9998
2 43573  86.3993 191.8508 0001999  85.9115 274.2309 14.34217735366998
IRIDIUM 154             
1 43574U 18061F   25209.50567244  .00000159  00000+0  49760-4 0  9994
2 43574  86.3995 192.0342 0002378  88.1417 272.0051 14.34215832367012
IRIDIUM 163             
1 43575U 18061G   25209.48665689  .00000201  00000+0  64750-4 0  9998
2 43575  86.3994 191.9680 0002313  83.4183 276.7276 14.34216436366988
IRIDIUM 156             
1 43576U 18061H   25209.46127738  .00000026  00000+0  22186-5 0  9998
2 43576  86.3994 191.9854 0001925  90.3460 269.7956 14.34217818366976
IRIDIUM 164             
1 43577U 18061J   25209.51201753  .00000071  00000+0  18234-4 0  9993
2 43577  86.3996 191.9994 0002325  93.6067 266.5395 14.34218524367022
IRIDIUM 159             
1 43578U 18061K   25209.48030575  .00000049  00000+0  10493-4 0  9996
2 43578  86.3994 191.9563 0002490  88.2115 271.9366 14.34218152366989
IRIDIUM 180             
1 43922U 19002A   25209.54957008  .00000146  00000+0  44967-4 0  9992
2 43922  86.3998 128.9111 0002279  81.0202 279.1251 14.34216650342605
IRIDIUM 176             
1 43923U 19002B   25209.29286725  .00000923  00000+0  14256-3 0  9996
2 43923  86.6122 129.0075 0001992  73.5128 286.6308 14.72252215351596
IRIDIUM 168             
1 43924U 19002C   25210.17114518  .00000017  00000+0 -10683-5 0  9993
2 43924  86.4001 128.7197 0002086  83.0385 277.1048 14.34217584342671
IRIDIUM 173             
1 43925U 19002D   25210.15846022  .00000216  00000+0  70220-4 0  9996
2 43925  86.3996 128.6271 0002152  79.6246 280.5192 14.34217439342663
IRIDIUM 169             
1 43926U 19002E   25209.81790383  .00000307  00000+0  93865-4 0  9997
2 43926  86.4277 160.3578 0001343  51.3194 308.8124 14.38608326343731
IRIDIUM 172             
1 43927U 19002F   25210.15211783  .00000256  00000+0  84229-4 0  9996
2 43927  86.3996 128.6368 0002459  80.4666 279.6807 14.34217465342669
IRIDIUM 175             
1 43928U 19002G   25210.17147038  .00000837  00000+0  12877-3 0  9994
2 43928  86.1468  78.7577 0001712 109.5513 250.5888 14.72251389351712
IRIDIUM 171             
1 43929U 19002H   25209.85401569  .00000157  00000+0  48996-4 0  9997
2 43929  86.4006 129.0318 0002119  92.1138 268.0301 14.34217864342610
IRIDIUM 170             
1 43930U 19002J   25209.84279295  .00000930  00000+0  14363-3 0  9996
2 43930  86.6121 128.7825 0002190  83.1616 276.9851 14.72253052351687
IRIDIUM 167             
1 43931U 19002K   25209.84767253  .00000076  00000+0  20141-4 0  9996
2 43931  86.3997 128.7838 0001830  92.3042 267.8363 14.34217227342617
IRIDIUM 181             
1 56726U 23068S   25209.68482952  .00000252  00000+0  68958-4 0  9995
2 56726  86.4532 191.9099 0002575 101.1800 258.9690 14.43314551115775
IRIDIUM 177             
1 56727U 23068T   25209.78127509  .00001172  00000+0  15068-3 0  9996
2 56727  86.1987 122.3945 0002283  92.6777 267.4705 14.80238253118521
IRIDIUM 174             
1 56728U 23068U   25209.28668880  .00000975  00000+0  15068-3 0  9994
2 56728  86.6130 129.1290 0002688  72.9765 287.1746 14.72255512118366
IRIDIUM 178             
1 56729U 23068V   25209.83798684  .00001227  00000+0  15802-3 0  9999
2 56729  86.6595 160.4594 0002575  83.4907 276.6608 14.80237328118530
IRIDIUM 179             
1 56730U 23068W   25209.83261288  .00001237  00000+0  15940-3 0  9990
2 56730  86.6834 168.4558 0002411  89.0533 271.0964 14.80239610118532
